{"type": "FeatureCollection", "features": [ {"type": "Feature", "properties": {"norad_id": 66325, "name": "STARLINK-35504", "group": "last-30-days", "lat": 40.357591426813705, "lon": 105.79892263912714, "alt_km": 432.0631037822295, "timestamp": "2025-12-03T06:58:42.030585+00:00", "meta": {"OBJECT_NAME": "STARLINK-35504", "OBJECT_ID": "2025-253G", "EPOCH": "2025-12-02T20:00:03.000384", "MEAN_MOTION": 15.4500141, "ECCENTRICITY": 0.0001484, "INCLINATION": 43.0007, "RA_OF_ASC_NODE": 42.6769, "ARG_OF_PERICENTER": 276.7128, "MEAN_ANOMALY": 129.7221, "EPHEMERIS_TYPE": 0, "CLASSIFICATION_TYPE": "U", "NORAD_CAT_ID": 66325, "ELEMENT_SET_NO": 999, "REV_AT_EPOCH": 533, "BSTAR": -0.048239, "MEAN_MOTION_DOT": -0.02068594, "MEAN_MOTION_DDOT": 0}, "tle": {"line1": "1 66325U 25253G   25336.83336806 -.02068594  00000+0 -48239-1 0  9997", "line2": "2 66325  43.0007  42.6769 0001484 276.7128 129.7221 15.45001410  5338"}}, "geometry": {"type": "Point", "coordinates": [105.79892263912714, 40.357591426813705]}}, {"type": "Feature", "properties": {"norad_id": 66326, "name": "STARLINK-35479", "group": "last-30-days", "lat": 41.95281849186135, "lon": 145.23155154481418, "alt_km": 408.27499094476025, "timestamp": "2025-12-03T06:58:42.030598+00:00", "meta": {"OBJECT_NAME": "STARLINK-35479", "OBJECT_ID": "2025-253H", "EPOCH": "2025-12-02T11:59:36.576960", "MEAN_MOTION": 15.50605738, "ECCENTRICITY": 8.221e-05, "INCLINATION": 43.0003, "RA_OF_ASC_NODE": 44.5798, "ARG_OF_PERICENTER": 239.7912, "MEAN_ANOMALY": 120.2866, "EPHEMERIS_TYPE": 0, "CLASSIFICATION_TYPE": "U", "NORAD_CAT_ID": 66326, "ELEMENT_SET_NO": 999, "REV_AT_EPOCH": 534, "BSTAR": 0.0016599286, "MEAN_MOTION_DOT": 0.00098363, "MEAN_MOTION_DDOT": 0}, "tle": {"line1": "1 66326U 25253H   25336.49972890  .00098363  00000+0  16599-2 0  9997", "line2": "2 66326  43.0003  44.5798 0000822 239.7912 120.2866 15.50605738  5344"}}, "geometry": {"type": "Point", "coordinates": [145.23155154481418, 41.95281849186135]}}, {"type": "Feature", "properties": {"norad_id": 66327, "name": "STARLINK-35507", "group": "last-30-days", "lat": 42.974957880623315, "lon": 130.99509620442248, "alt_km": 408.55182876691197, "timestamp": "2025-12-03T06:58:42.030609+00:00", "meta": {"OBJECT_NAME": "STARLINK-35507", "OBJECT_ID": "2025-253J", "EPOCH": "2025-12-02T05:51:32.368032", "MEAN_MOTION": 15.50777938, "ECCENTRICITY": 0.0002596, "INCLINATION": 42.9999, "RA_OF_ASC_NODE": 46.106, "ARG_OF_PERICENTER": 253.7936, "MEAN_ANOMALY": 106.2639, "EPHEMERIS_TYPE": 0, "CLASSIFICATION_TYPE": "U", "NORAD_CAT_ID": 66327, "ELEMENT_SET_NO": 999, "REV_AT_EPOCH": 530, "BSTAR": 0.002155, "MEAN_MOTION_DOT": 0.00129109, "MEAN_MOTION_DDOT": 0}, "tle": {"line1": "1 66327U 25253J   25336.24412463  .00129109  00000+0  21550-2 0  9992", "line2": "2 66327  42.9999  46.1060 0002596 253.7936 106.2639 15.50777938  5309"}}, "geometry": {"type": "Point", "coordinates": [130.99509620442248, 42.974957880623315]}}, {"type": "Feature", "properties": {"norad_id": 66328, "name": "STARLINK-35460", "group": "last-30-days", "lat": 40.433607013412114, "lon": 153.8138342626027, "alt_km": 408.70277867317145, "timestamp": "2025-12-03T06:58:42.030620+00:00", "meta": {"OBJECT_NAME": "STARLINK-35460", "OBJECT_ID": "2025-253K", "EPOCH": "2025-12-01T14:19:31.564704", "MEAN_MOTION": 15.50606087, "ECCENTRICITY": 0.00018266, "INCLINATION": 43.0003, "RA_OF_ASC_NODE": 49.8457, "ARG_OF_PERICENTER": 291.64, "MEAN_ANOMALY": 68.4265, "EPHEMERIS_TYPE": 0, "CLASSIFICATION_TYPE": "U", "NORAD_CAT_ID": 66328, "ELEMENT_SET_NO": 999, "REV_AT_EPOCH": 520, "BSTAR": 0.0016742687, "MEAN_MOTION_DOT": 0.0009923, "MEAN_MOTION_DDOT": 0}, "tle": {"line1": "1 66328U 25253K   25335.59689311  .00099230  00000+0  16743-2 0  9997", "line2": "2 66328  43.0003  49.8457 0001826 291.6400  68.4265 15.50606087  5209"}}, "geometry": {"type": "Point", "coordinates": [153.8138342626027, 40.433607013412114]}}, {"type": "Feature", "properties": {"norad_id": 66329, "name": "STARLINK-35505", "group": "last-30-days", "lat": 42.887380175489284, "lon": 125.38841579946613, "alt_km": 409.02145867210766, "timestamp": "2025-12-03T06:58:42.030631+00:00", "meta": {"OBJECT_NAME": "STARLINK-35505", "OBJECT_ID": "2025-253L", "EPOCH": "2025-12-02T05:52:02.295264", "MEAN_MOTION": 15.50171072, "ECCENTRICITY": 0.000215, "INCLINATION": 43.0001, "RA_OF_ASC_NODE": 46.1098, "ARG_OF_PERICENTER": 329.5242, "MEAN_ANOMALY": 30.5492, "EPHEMERIS_TYPE": 0, "CLASSIFICATION_TYPE": "U", "NORAD_CAT_ID": 66329, "ELEMENT_SET_NO": 999, "REV_AT_EPOCH": 530, "BSTAR": 0.0025402, "MEAN_MOTION_DOT": 0.00149376, "MEAN_MOTION_DDOT": 0}, "tle": {"line1": "1 66329U 25253L   25336.24447101  .00149376  00000+0  25402-2 0  9999", "line2": "2 66329  43.0001  46.1098 0002150 329.5242  30.5492 15.50171072  5309"}}, "geometry": {"type": "Point", "coordinates": [125.38841579946613, 42.887380175489284]}}, {"type": "Feature", "properties": {"norad_id": 66330, "name": "STARLINK-35512", "group": "last-30-days", "lat": 7.770874192846221, "lon": 48.593897795719506, "alt_km": 442.73176859942123, "timestamp": "2025-12-03T06:58:42.030641+00:00", "meta": {"OBJECT_NAME": "STARLINK-35512", "OBJECT_ID": "2025-253M", "EPOCH": "2025-12-02T20:00:03.000384", "MEAN_MOTION": 15.40774802, "ECCENTRICITY": 0.0001806, "INCLINATION": 43.0006, "RA_OF_ASC_NODE": 42.8096, "ARG_OF_PERICENTER": 283.2918, "MEAN_ANOMALY": 68.2017, "EPHEMERIS_TYPE": 0, "CLASSIFICATION_TYPE": "U", "NORAD_CAT_ID": 66330, "ELEMENT_SET_NO": 999, "REV_AT_EPOCH": 533, "BSTAR": -0.0027709, "MEAN_MOTION_DOT": -0.00114619, "MEAN_MOTION_DDOT": 0}, "tle": {"line1": "1 66330U 25253M   25336.83336806 -.00114619  00000+0 -27709-2 0  9991", "line2": "2 66330  43.0006  42.8096 0001806 283.2918  68.2017 15.40774802  5333"}}, "geometry": {"type": "Point", "coordinates": [48.593897795719506, 7.770874192846221]}}, {"type": "Feature", "properties": {"norad_id": 66331, "name": "STARLINK-35257", "group": "last-30-days", "lat": 38.84082840950526, "lon": 160.144742684091, "alt_km": 408.93502530643127, "timestamp": "2025-12-03T06:58:42.030652+00:00", "meta": {"OBJECT_NAME": "STARLINK-35257", "OBJECT_ID": "2025-253N", "EPOCH": "2025-12-02T05:45:36.979776", "MEAN_MOTION": 15.5063759, "ECCENTRICITY": 0.0001229, "INCLINATION": 42.9998, "RA_OF_ASC_NODE": 46.0726, "ARG_OF_PERICENTER": 269.4284, "MEAN_ANOMALY": 90.6435, "EPHEMERIS_TYPE": 0, "CLASSIFICATION_TYPE": "U", "NORAD_CAT_ID": 66331, "ELEMENT_SET_NO": 999, "REV_AT_EPOCH": 530, "BSTAR": 0.0014445, "MEAN_MOTION_DOT": 0.00085511, "MEAN_MOTION_DDOT": 0}, "tle": {"line1": "1 66331U 25253N   25336.24001134  .00085511  00000+0  14445-2 0  9999", "line2": "2 66331  42.9998  46.0726 0001229 269.4284  90.6435 15.50637590  5302"}}, "geometry": {"type": "Point", "coordinates": [160.144742684091, 38.84082840950526]}}, {"type": "Feature", "properties": {"norad_id": 66332, "name": "STARLINK-35322", "group": "last-30-days", "lat": 41.47952836709866, "lon": 148.37082750251318, "alt_km": 408.26237722004043, "timestamp": "2025-12-03T06:58:42.030663+00:00", "meta": {"OBJECT_NAME": "STARLINK-35322", "OBJECT_ID": "2025-253P", "EPOCH": "2025-12-02T05:48:04.239936", "MEAN_MOTION": 15.50671276, "ECCENTRICITY": 9.86e-05, "INCLINATION": 43.0002, "RA_OF_ASC_NODE": 46.0856, "ARG_OF_PERICENTER": 282.8379, "MEAN_ANOMALY": 77.2371, "EPHEMERIS_TYPE": 0, "CLASSIFICATION_TYPE": "U", "NORAD_CAT_ID": 66332, "ELEMENT_SET_NO": 999, "REV_AT_EPOCH": 530, "BSTAR": 0.001523, "MEAN_MOTION_DOT": 0.00090339, "MEAN_MOTION_DDOT": 0}, "tle": {"line1": "1 66332U 25253P   25336.24171574  .00090339  00000+0  15230-2 0  9993", "line2": "2 66332  43.0002  46.0856 0000986 282.8379  77.2371 15.50671276  5307"}}, "geometry": {"type": "Point", "coordinates": [148.37082750251318, 41.47952836709866]}}, {"type": "Feature", "properties": {"norad_id": 66333, "name": "STARLINK-35400", "group": "last-30-days", "lat": 39.4815587578315, "lon": 157.79474347056725, "alt_km": 409.0309320865099, "timestamp": "2025-12-03T06:58:42.030674+00:00", "meta": {"OBJECT_NAME": "STARLINK-35400", "OBJECT_ID": "2025-253Q", "EPOCH": "2025-12-02T05:46:06.661632", "MEAN_MOTION": 15.50632789, "ECCENTRICITY": 0.0001606, "INCLINATION": 43.0007, "RA_OF_ASC_NODE": 46.0732, "ARG_OF_PERICENTER": 261.218, "MEAN_ANOMALY": 98.8498, "EPHEMERIS_TYPE": 0, "CLASSIFICATION_TYPE": "U", "NORAD_CAT_ID": 66333, "ELEMENT_SET_NO": 999, "REV_AT_EPOCH": 530, "BSTAR": 0.0015089, "MEAN_MOTION_DOT": 0.00089367, "MEAN_MOTION_DDOT": 0}, "tle": {"line1": "1 66333U 25253Q   25336.24035488  .00089367  00000+0  15089-2 0  9998", "line2": "2 66333  43.0007  46.0732 0001606 261.2180  98.8498 15.50632789  5302"}}, "geometry": {"type": "Point", "coordinates": [157.79474347056725, 39.4815587578315]}}, {"type": "Feature", "properties": {"norad_id": 66334, "name": "STARLINK-35407", "group": "last-30-days", "lat": 41.34369009638104, "lon": 149.1729855074146, "alt_km": 408.6328301986923, "timestamp": "2025-12-03T06:58:42.030684+00:00", "meta": {"OBJECT_NAME": "STARLINK-35407", "OBJECT_ID": "2025-253R", "EPOCH": "2025-12-02T05:47:54.704832", "MEAN_MOTION": 15.50606846, "ECCENTRICITY": 0.000182, "INCLINATION": 43.0002, "RA_OF_ASC_NODE": 46.0853, "ARG_OF_PERICENTER": 277.7851, "MEAN_ANOMALY": 82.2803, "EPHEMERIS_TYPE": 0, "CLASSIFICATION_TYPE": "U", "NORAD_CAT_ID": 66334, "ELEMENT_SET_NO": 999, "REV_AT_EPOCH": 530, "BSTAR": 0.0026112, "MEAN_MOTION_DOT": 0.00156096, "MEAN_MOTION_DDOT": 0}, "tle": {"line1": "1 66334U 25253R   25336.24160538  .00156096  00000+0  26112-2 0  9997", "line2": "2 66334  43.0002  46.0853 0001820 277.7851  82.2803 15.50606846  5309"}}, "geometry": {"type": "Point", "coordinates": [149.1729855074146, 41.34369009638104]}}]}